{"type": "FeatureCollection", "features": [ {"type": "Feature", "properties": {"norad_id": 28659, "name": "DIRECTV 8", "group": "intelsat", "lat": 0.009567013079667189, "lon": 116.6952791828748, "alt_km": 35797.436491370936, "timestamp": "2025-12-03T10:52:57.117524+00:00", "meta": {"OBJECT_NAME": "DIRECTV 8", "OBJECT_ID": "2005-019A", "EPOCH": "2025-12-03T04:16:38.815392", "MEAN_MOTION": 1.00271343, "ECCENTRICITY": 0.0003298, "INCLINATION": 0.0151, "RA_OF_ASC_NODE": 306.8125, "ARG_OF_PERICENTER": 313.5862, "MEAN_ANOMALY": 116.9976, "EPHEMERIS_TYPE": 0, "CLASSIFICATION_TYPE": "U", "NORAD_CAT_ID": 28659, "ELEMENT_SET_NO": 999, "REV_AT_EPOCH": 7510, "BSTAR": 0, "MEAN_MOTION_DOT": 2e-07, "MEAN_MOTION_DDOT": 0}, "tle": {"line1": "1 28659U 05019A   25337.17822703  .00000020  00000+0  00000+0 0  9995", "line2": "2 28659   0.0151 306.8125 0003298 313.5862 116.9976  1.00271343 75107"}}, "geometry": {"type": "Point", "coordinates": [116.6952791828748, 0.009567013079667189]}}, {"type": "Feature", "properties": {"norad_id": 28702, "name": "GALAXY 28 (G-28)", "group": "intelsat", "lat": 2.5441700088969563, "lon": 147.00314596846874, "alt_km": 35788.262181866834, "timestamp": "2025-12-03T10:52:57.117536+00:00", "meta": {"OBJECT_NAME": "GALAXY 28 (G-28)", "OBJECT_ID": "2005-022A", "EPOCH": "2025-12-03T03:03:36.946080", "MEAN_MOTION": 1.00272226, "ECCENTRICITY": 0.0002659, "INCLINATION": 2.7941, "RA_OF_ASC_NODE": 81.3919, "ARG_OF_PERICENTER": 169.0679, "MEAN_ANOMALY": 138.9637, "EPHEMERIS_TYPE": 0, "CLASSIFICATION_TYPE": "U", "NORAD_CAT_ID": 28702, "ELEMENT_SET_NO": 999, "REV_AT_EPOCH": 5000, "BSTAR": 0, "MEAN_MOTION_DOT": -1.69e-06, "MEAN_MOTION_DDOT": 0}, "tle": {"line1": "1 28702U 05022A   25337.12751095 -.00000169  00000+0  00000+0 0  9993", "line2": "2 28702   2.7941  81.3919 0002659 169.0679 138.9637  1.00272226 50009"}}, "geometry": {"type": "Point", "coordinates": [147.00314596846874, 2.5441700088969563]}}, {"type": "Feature", "properties": {"norad_id": 29236, "name": "GALAXY 16 (G-16)", "group": "intelsat", "lat": -0.015189103750116492, "lon": 136.71507188772148, "alt_km": 35792.248742316275, "timestamp": "2025-12-03T10:52:57.117548+00:00", "meta": {"OBJECT_NAME": "GALAXY 16 (G-16)", "OBJECT_ID": "2006-023A", "EPOCH": "2025-12-03T04:00:38.641824", "MEAN_MOTION": 1.00270158, "ECCENTRICITY": 0.0002901, "INCLINATION": 0.0255, "RA_OF_ASC_NODE": 219.5715, "ARG_OF_PERICENTER": 34.8297, "MEAN_ANOMALY": 139.0115, "EPHEMERIS_TYPE": 0, "CLASSIFICATION_TYPE": "U", "NORAD_CAT_ID": 29236, "ELEMENT_SET_NO": 999, "REV_AT_EPOCH": 7100, "BSTAR": 0, "MEAN_MOTION_DOT": -1.08e-06, "MEAN_MOTION_DDOT": 0}, "tle": {"line1": "1 29236U 06023A   25337.16711391 -.00000108  00000+0  00000+0 0  9990", "line2": "2 29236   0.0255 219.5715 0002901  34.8297 139.0115  1.00270158 71003"}}, "geometry": {"type": "Point", "coordinates": [136.71507188772148, -0.015189103750116492]}}, {"type": "Feature", "properties": {"norad_id": 29494, "name": "DIRECTV 9S", "group": "intelsat", "lat": 1.4950002444762338, "lon": 134.5057923769201, "alt_km": 35792.278862107254, "timestamp": "2025-12-03T10:52:57.117560+00:00", "meta": {"OBJECT_NAME": "DIRECTV 9S", "OBJECT_ID": "2006-043A", "EPOCH": "2025-12-03T04:00:38.641824", "MEAN_MOTION": 1.00270605, "ECCENTRICITY": 0.0003194, "INCLINATION": 1.9135, "RA_OF_ASC_NODE": 83.3116, "ARG_OF_PERICENTER": 167.8035, "MEAN_ANOMALY": 140.1037, "EPHEMERIS_TYPE": 0, "CLASSIFICATION_TYPE": "U", "NORAD_CAT_ID": 29494, "ELEMENT_SET_NO": 999, "REV_AT_EPOCH": 4941, "BSTAR": 0, "MEAN_MOTION_DOT": -9.5e-07, "MEAN_MOTION_DDOT": 0}, "tle": {"line1": "1 29494U 06043A   25337.16711391 -.00000095  00000+0  00000+0 0  9993", "line2": "2 29494   1.9135  83.3116 0003194 167.8035 140.1037  1.00270605 49413"}}, "geometry": {"type": "Point", "coordinates": [134.5057923769201, 1.4950002444762338]}}, {"type": "Feature", "properties": {"norad_id": 31307, "name": "GALAXY 17 (G-17)", "group": "intelsat", "lat": 2.2953654683169304, "lon": 150.6733164865151, "alt_km": 35785.26745185417, "timestamp": "2025-12-03T10:52:57.117572+00:00", "meta": {"OBJECT_NAME": "GALAXY 17 (G-17)", "OBJECT_ID": "2007-016B", "EPOCH": "2025-12-03T03:04:44.338080", "MEAN_MOTION": 1.00270473, "ECCENTRICITY": 0.0006123, "INCLINATION": 2.4738, "RA_OF_ASC_NODE": 82.3951, "ARG_OF_PERICENTER": 156.2106, "MEAN_ANOMALY": 154.8055, "EPHEMERIS_TYPE": 0, "CLASSIFICATION_TYPE": "U", "NORAD_CAT_ID": 31307, "ELEMENT_SET_NO": 999, "REV_AT_EPOCH": 6783, "BSTAR": 0, "MEAN_MOTION_DOT": -1.88e-06, "MEAN_MOTION_DDOT": 0}, "tle": {"line1": "1 31307U 07016B   25337.12829095 -.00000188  00000+0  00000+0 0  9990", "line2": "2 31307   2.4738  82.3951 0006123 156.2106 154.8055  1.00270473 67837"}}, "geometry": {"type": "Point", "coordinates": [150.6733164865151, 2.2953654683169304]}}, {"type": "Feature", "properties": {"norad_id": 31862, "name": "DIRECTV 10", "group": "intelsat", "lat": 1.6255292046825653e-05, "lon": 132.95535111216773, "alt_km": 35785.47803614582, "timestamp": "2025-12-03T10:52:57.117583+00:00", "meta": {"OBJECT_NAME": "DIRECTV 10", "OBJECT_ID": "2007-032A", "EPOCH": "2025-12-03T01:16:54.672384", "MEAN_MOTION": 1.00270565, "ECCENTRICITY": 3.53e-05, "INCLINATION": 0.0055, "RA_OF_ASC_NODE": 216.2593, "ARG_OF_PERICENTER": 326.4946, "MEAN_ANOMALY": 165.8273, "EPHEMERIS_TYPE": 0, "CLASSIFICATION_TYPE": "U", "NORAD_CAT_ID": 31862, "ELEMENT_SET_NO": 999, "REV_AT_EPOCH": 4362, "BSTAR": 0, "MEAN_MOTION_DOT": -8.4e-07, "MEAN_MOTION_DDOT": 0}, "tle": {"line1": "1 31862U 07032A   25337.05341056 -.00000084  00000+0  00000+0 0  9997", "line2": "2 31862   0.0055 216.2593 0000353 326.4946 165.8273  1.00270565 43628"}}, "geometry": {"type": "Point", "coordinates": [132.95535111216773, 1.6255292046825653e-05]}}, {"type": "Feature", "properties": {"norad_id": 32253, "name": "INTELSAT 11 (IS-11)", "group": "intelsat", "lat": 2.675681289037675, "lon": 142.20924400135507, "alt_km": 36139.273153409595, "timestamp": "2025-12-03T10:52:57.117595+00:00", "meta": {"OBJECT_NAME": "INTELSAT 11 (IS-11)", "OBJECT_ID": "2007-044B", "EPOCH": "2025-12-03T03:02:44.528928", "MEAN_MOTION": 0.99047311, "ECCENTRICITY": 0.0009278, "INCLINATION": 3.0531, "RA_OF_ASC_NODE": 81.0837, "ARG_OF_PERICENTER": 160.8909, "MEAN_ANOMALY": 143.9603, "EPHEMERIS_TYPE": 0, "CLASSIFICATION_TYPE": "U", "NORAD_CAT_ID": 32253, "ELEMENT_SET_NO": 999, "REV_AT_EPOCH": 6650, "BSTAR": 0, "MEAN_MOTION_DOT": 2e-08, "MEAN_MOTION_DDOT": 0}, "tle": {"line1": "1 32253U 07044B   25337.12690427  .00000002  00000+0  00000+0 0  9991", "line2": "2 32253   3.0531  81.0837 0009278 160.8909 143.9603  0.99047311 66502"}}, "geometry": {"type": "Point", "coordinates": [142.20924400135507, 2.675681289037675]}}, {"type": "Feature", "properties": {"norad_id": 32388, "name": "HORIZONS-2", "group": "intelsat", "lat": 2.0466782443551663, "lon": 161.91092150986145, "alt_km": 35789.924044438674, "timestamp": "2025-12-03T10:52:57.117607+00:00", "meta": {"OBJECT_NAME": "HORIZONS-2", "OBJECT_ID": "2007-063B", "EPOCH": "2025-12-03T03:07:51.540096", "MEAN_MOTION": 1.00272174, "ECCENTRICITY": 0.0004963, "INCLINATION": 2.0946, "RA_OF_ASC_NODE": 83.067, "ARG_OF_PERICENTER": 180.5023, "MEAN_ANOMALY": 141.8346, "EPHEMERIS_TYPE": 0, "CLASSIFICATION_TYPE": "U", "NORAD_CAT_ID": 32388, "ELEMENT_SET_NO": 999, "REV_AT_EPOCH": 6584, "BSTAR": 0, "MEAN_MOTION_DOT": -2.35e-06, "MEAN_MOTION_DDOT": 0}, "tle": {"line1": "1 32388U 07063B   25337.13045764 -.00000235  00000+0  00000+0 0  9999", "line2": "2 32388   2.0946  83.0670 0004963 180.5023 141.8346  1.00272174 65846"}}, "geometry": {"type": "Point", "coordinates": [161.91092150986145, 2.0466782443551663]}}, {"type": "Feature", "properties": {"norad_id": 32729, "name": "DIRECTV 11", "group": "intelsat", "lat": -0.0010170809074054679, "lon": 136.56209462323073, "alt_km": 35785.18931317837, "timestamp": "2025-12-03T10:52:57.117619+00:00", "meta": {"OBJECT_NAME": "DIRECTV 11", "OBJECT_ID": "2008-013A", "EPOCH": "2025-12-02T10:08:34.465632", "MEAN_MOTION": 1.0027113, "ECCENTRICITY": 4.09e-05, "INCLINATION": 0.0114, "RA_OF_ASC_NODE": 215.6397, "ARG_OF_PERICENTER": 330.8354, "MEAN_ANOMALY": 298.008, "EPHEMERIS_TYPE": 0, "CLASSIFICATION_TYPE": "U", "NORAD_CAT_ID": 32729, "ELEMENT_SET_NO": 999, "REV_AT_EPOCH": 4362, "BSTAR": 0, "MEAN_MOTION_DOT": -1.05e-06, "MEAN_MOTION_DDOT": 0}, "tle": {"line1": "1 32729U 08013A   25336.42262113 -.00000105  00000+0  00000+0 0  9990", "line2": "2 32729   0.0114 215.6397 0000409 330.8354 298.0080  1.00271130 43620"}}, "geometry": {"type": "Point", "coordinates": [136.56209462323073, -0.0010170809074054679]}}, {"type": "Feature", "properties": {"norad_id": 32951, "name": "GALAXY 18 (G-18)", "group": "intelsat", "lat": 0.02987555546415988, "lon": 112.71024873278967, "alt_km": 35797.09349193994, "timestamp": "2025-12-03T10:52:57.117631+00:00", "meta": {"OBJECT_NAME": "GALAXY 18 (G-18)", "OBJECT_ID": "2008-024A", "EPOCH": "2025-12-02T16:37:27.594336", "MEAN_MOTION": 1.00272815, "ECCENTRICITY": 0.0003397, "INCLINATION": 0.0216, "RA_OF_ASC_NODE": 348.532, "ARG_OF_PERICENTER": 266.2767, "MEAN_ANOMALY": 303.3251, "EPHEMERIS_TYPE": 0, "CLASSIFICATION_TYPE": "U", "NORAD_CAT_ID": 32951, "ELEMENT_SET_NO": 999, "REV_AT_EPOCH": 4388, "BSTAR": 0, "MEAN_MOTION_DOT": 0, "MEAN_MOTION_DDOT": 0}, "tle": {"line1": "1 32951U 08024A   25336.69268049  .00000000  00000+0  00000+0 0  9995", "line2": "2 32951   0.0216 348.5320 0003397 266.2767 303.3251  1.00272815 43880"}}, "geometry": {"type": "Point", "coordinates": [112.71024873278967, 0.02987555546415988]}}]}